CCSDS_OMM_VERS = 2.0
CREATION_DATE  = 
ORIGINATOR     = 

OBJECT_NAME    = STARLINK-35056
OBJECT_ID      = 2025-247B
CENTER_NAME    = EARTH
REF_FRAME      = TEME
TIME_SYSTEM    = UTC
MEAN_ELEMENT_THEORY = SGP/SGP4

EPOCH          = 2025-11-15T12:01:16.469184
MEAN_MOTION    = 15.67074274
ECCENTRICITY   = .0006851
INCLINATION    = 53.1587
RA_OF_ASC_NODE = 6.6172
ARG_OF_PERICENTER = 284.1106
MEAN_ANOMALY   = 75.9150

EPHEMERIS_TYPE = 0
CLASSIFICATION_TYPE = U
NORAD_CAT_ID   = 66266
ELEMENT_SET_NO = 999
REV_AT_EPOCH   = 348
BSTAR          = .26467E-2
MEAN_MOTION_DOT = .298104E-2
MEAN_MOTION_DDOT = 0

CCSDS_OMM_VERS = 2.0
CREATION_DATE  = 
ORIGINATOR     = 

OBJECT_NAME    = STARLINK-35550
OBJECT_ID      = 2025-247C
CENTER_NAME    = EARTH
REF_FRAME      = TEME
TIME_SYSTEM    = UTC
MEAN_ELEMENT_THEORY = SGP/SGP4

EPOCH          = 2025-11-15T13:27:12.826368
MEAN_MOTION    = 15.74165016
ECCENTRICITY   = .0002027
INCLINATION    = 53.1532
RA_OF_ASC_NODE = 5.5298
ARG_OF_PERICENTER = 98.0340
MEAN_ANOMALY   = 262.0910

EPHEMERIS_TYPE = 0
CLASSIFICATION_TYPE = U
NORAD_CAT_ID   = 66267
ELEMENT_SET_NO = 999
REV_AT_EPOCH   = 350
BSTAR          = .21192E-2
MEAN_MOTION_DOT = .321536E-2
MEAN_MOTION_DDOT = 0

CCSDS_OMM_VERS = 2.0
CREATION_DATE  = 
ORIGINATOR     = 

OBJECT_NAME    = STARLINK-35069
OBJECT_ID      = 2025-247D
CENTER_NAME    = EARTH
REF_FRAME      = TEME
TIME_SYSTEM    = UTC
MEAN_ELEMENT_THEORY = SGP/SGP4

EPOCH          = 2025-11-15T15:03:08.010720
MEAN_MOTION    = 15.69581187
ECCENTRICITY   = .0014575
INCLINATION    = 53.1586
RA_OF_ASC_NODE = 5.9827
ARG_OF_PERICENTER = 280.7757
MEAN_ANOMALY   = 79.1620

EPHEMERIS_TYPE = 0
CLASSIFICATION_TYPE = U
NORAD_CAT_ID   = 66268
ELEMENT_SET_NO = 999
REV_AT_EPOCH   = 350
BSTAR          = .46244E-1
MEAN_MOTION_DOT = .6733242E-1
MEAN_MOTION_DDOT = 0

CCSDS_OMM_VERS = 2.0
CREATION_DATE  = 
ORIGINATOR     = 

OBJECT_NAME    = STARLINK-34910
OBJECT_ID      = 2025-247E
CENTER_NAME    = EARTH
REF_FRAME      = TEME
TIME_SYSTEM    = UTC
MEAN_ELEMENT_THEORY = SGP/SGP4

EPOCH          = 2025-11-16T04:41:46.150656
MEAN_MOTION    = 15.77620633
ECCENTRICITY   = .0011244
INCLINATION    = 53.1566
RA_OF_ASC_NODE = 2.3817
ARG_OF_PERICENTER = 336.4190
MEAN_ANOMALY   = 23.6315

EPHEMERIS_TYPE = 0
CLASSIFICATION_TYPE = U
NORAD_CAT_ID   = 66269
ELEMENT_SET_NO = 999
REV_AT_EPOCH   = 360
BSTAR          = .53893E-1
MEAN_MOTION_DOT = .11482478E+0
MEAN_MOTION_DDOT = 0

CCSDS_OMM_VERS = 2.0
CREATION_DATE  = 
ORIGINATOR     = 

OBJECT_NAME    = STARLINK-35757
OBJECT_ID      = 2025-247F
CENTER_NAME    = EARTH
REF_FRAME      = TEME
TIME_SYSTEM    = UTC
MEAN_ELEMENT_THEORY = SGP/SGP4

EPOCH          = 2025-11-15T10:27:00.048672
MEAN_MOTION    = 15.70125545
ECCENTRICITY   = .0016585
INCLINATION    = 53.1590
RA_OF_ASC_NODE = 6.9202
ARG_OF_PERICENTER = 281.0788
MEAN_ANOMALY   = 78.8365

EPHEMERIS_TYPE = 0
CLASSIFICATION_TYPE = U
NORAD_CAT_ID   = 66270
ELEMENT_SET_NO = 999
REV_AT_EPOCH   = 352
BSTAR          = .13668E-1
MEAN_MOTION_DOT = .1906918E-1
MEAN_MOTION_DDOT = 0

CCSDS_OMM_VERS = 2.0
CREATION_DATE  = 
ORIGINATOR     = 

OBJECT_NAME    = STARLINK-35745
OBJECT_ID      = 2025-247G
CENTER_NAME    = EARTH
REF_FRAME      = TEME
TIME_SYSTEM    = UTC
MEAN_ELEMENT_THEORY = SGP/SGP4

EPOCH          = 2025-11-15T13:30:14.916960
MEAN_MOTION    = 15.66062338
ECCENTRICITY   = .0000634
INCLINATION    = 53.1588
RA_OF_ASC_NODE = 6.2914
ARG_OF_PERICENTER = 91.6771
MEAN_ANOMALY   = 268.4318

EPHEMERIS_TYPE = 0
CLASSIFICATION_TYPE = U
NORAD_CAT_ID   = 66271
ELEMENT_SET_NO = 999
REV_AT_EPOCH   = 354
BSTAR          = -.13626E-1
MEAN_MOTION_DOT = -.1272419E-1
MEAN_MOTION_DDOT = 0

CCSDS_OMM_VERS = 2.0
CREATION_DATE  = 
ORIGINATOR     = 

OBJECT_NAME    = STARLINK-35741
OBJECT_ID      = 2025-247H
CENTER_NAME    = EARTH
REF_FRAME      = TEME
TIME_SYSTEM    = UTC
MEAN_ELEMENT_THEORY = SGP/SGP4

EPOCH          = 2025-11-16T07:53:37.989888
MEAN_MOTION    = 15.62879857
ECCENTRICITY   = .0004281
INCLINATION    = 53.1605
RA_OF_ASC_NODE = 2.5391
ARG_OF_PERICENTER = 186.4791
MEAN_ANOMALY   = 173.6169

EPHEMERIS_TYPE = 0
CLASSIFICATION_TYPE = U
NORAD_CAT_ID   = 66272
ELEMENT_SET_NO = 999
REV_AT_EPOCH   = 366
BSTAR          = -.13983E-1
MEAN_MOTION_DOT = -.1162941E-1
MEAN_MOTION_DDOT = 0

CCSDS_OMM_VERS = 2.0
CREATION_DATE  = 
ORIGINATOR     = 

OBJECT_NAME    = STARLINK-35730
OBJECT_ID      = 2025-247J
CENTER_NAME    = EARTH
REF_FRAME      = TEME
TIME_SYSTEM    = UTC
MEAN_ELEMENT_THEORY = SGP/SGP4

EPOCH          = 2025-11-16T07:52:12.783936
MEAN_MOTION    = 15.66149777
ECCENTRICITY   = .0014643
INCLINATION    = 53.1609
RA_OF_ASC_NODE = 2.5321
ARG_OF_PERICENTER = 259.5186
MEAN_ANOMALY   = 100.4180

EPHEMERIS_TYPE = 0
CLASSIFICATION_TYPE = U
NORAD_CAT_ID   = 66273
ELEMENT_SET_NO = 999
REV_AT_EPOCH   = 366
BSTAR          = .21861E-2
MEAN_MOTION_DOT = .236274E-2
MEAN_MOTION_DDOT = 0

CCSDS_OMM_VERS = 2.0
CREATION_DATE  = 
ORIGINATOR     = 

OBJECT_NAME    = STARLINK-35760
OBJECT_ID      = 2025-247K
CENTER_NAME    = EARTH
REF_FRAME      = TEME
TIME_SYSTEM    = UTC
MEAN_ELEMENT_THEORY = SGP/SGP4

EPOCH          = 2025-11-16T10:56:58.805952
MEAN_MOTION    = 15.61981504
ECCENTRICITY   = .0001888
INCLINATION    = 53.1609
RA_OF_ASC_NODE = 1.9084
ARG_OF_PERICENTER = 36.5258
MEAN_ANOMALY   = 323.5885

EPHEMERIS_TYPE = 0
CLASSIFICATION_TYPE = U
NORAD_CAT_ID   = 66274
ELEMENT_SET_NO = 999
REV_AT_EPOCH   = 363
BSTAR          = -.12962E-1
MEAN_MOTION_DOT = -.105026E-1
MEAN_MOTION_DDOT = 0

CCSDS_OMM_VERS = 2.0
CREATION_DATE  = 
ORIGINATOR     = 

OBJECT_NAME    = STARLINK-35752
OBJECT_ID      = 2025-247L
CENTER_NAME    = EARTH
REF_FRAME      = TEME
TIME_SYSTEM    = UTC
MEAN_ELEMENT_THEORY = SGP/SGP4

EPOCH          = 2025-11-16T10:56:28.197024
MEAN_MOTION    = 15.62127026
ECCENTRICITY   = .0004463
INCLINATION    = 53.1611
RA_OF_ASC_NODE = 1.9075
ARG_OF_PERICENTER = 189.2248
MEAN_ANOMALY   = 170.8686

EPHEMERIS_TYPE = 0
CLASSIFICATION_TYPE = U
NORAD_CAT_ID   = 66275
ELEMENT_SET_NO = 999
REV_AT_EPOCH   = 363
BSTAR          = -.69807E-2
MEAN_MOTION_DOT = -.582011E-2
MEAN_MOTION_DDOT = 0

CCSDS_OMM_VERS = 2.0
CREATION_DATE  = 
ORIGINATOR     = 

OBJECT_NAME    = STARLINK-35742
OBJECT_ID      = 2025-247M
CENTER_NAME    = EARTH
REF_FRAME      = TEME
TIME_SYSTEM    = UTC
MEAN_ELEMENT_THEORY = SGP/SGP4

EPOCH          = 2025-11-16T06:19:34.588128
MEAN_MOTION    = 15.63030913
ECCENTRICITY   = .0002067
INCLINATION    = 53.1605
RA_OF_ASC_NODE = 2.8399
ARG_OF_PERICENTER = 11.3437
MEAN_ANOMALY   = 348.7624

EPHEMERIS_TYPE = 0
CLASSIFICATION_TYPE = U
NORAD_CAT_ID   = 66276
ELEMENT_SET_NO = 999
REV_AT_EPOCH   = 365
BSTAR          = -.15056E-1
MEAN_MOTION_DOT = -.1248627E-1
MEAN_MOTION_DDOT = 0

CCSDS_OMM_VERS = 2.0
CREATION_DATE  = 
ORIGINATOR     = 

OBJECT_NAME    = STARLINK-35708
OBJECT_ID      = 2025-247N
CENTER_NAME    = EARTH
REF_FRAME      = TEME
TIME_SYSTEM    = UTC
MEAN_ELEMENT_THEORY = SGP/SGP4

EPOCH          = 2025-11-16T07:45:50.114880
MEAN_MOTION    = 15.71022093
ECCENTRICITY   = .0031241
INCLINATION    = 53.1617
RA_OF_ASC_NODE = 2.5045
ARG_OF_PERICENTER = 257.5104
MEAN_ANOMALY   = 102.2419

EPHEMERIS_TYPE = 0
CLASSIFICATION_TYPE = U
NORAD_CAT_ID   = 66277
ELEMENT_SET_NO = 999
REV_AT_EPOCH   = 366
BSTAR          = -.83087E-2
MEAN_MOTION_DOT = -.984181E-2
MEAN_MOTION_DDOT = 0

