STARLINK-35056          
1 66266U 25247B   25319.50088506  .00298104  00000+0  26467-2 0  9998
2 66266  53.1587   6.6172 0006851 284.1106  75.9150 15.67074274  3486
STARLINK-35550          
1 66267U 25247C   25319.56056512  .00321536  00000+0  21192-2 0  9993
2 66267  53.1532   5.5298 0002027  98.0340 262.0910 15.74165016  3506
STARLINK-35069          
1 66268U 25247D   25319.62717605  .06733242  00000+0  46244-1 0  9999
2 66268  53.1586   5.9827 0014575 280.7757  79.1620 15.69581187  3501
STARLINK-34910          
1 66269U 25247E   25320.19567304  .11482478  00000+0  53893-1 0  9999
2 66269  53.1566   2.3817 0011244 336.4190  23.6315 15.77620633  3605
STARLINK-35757          
1 66270U 25247F   25319.43541723  .01906918  00000+0  13668-1 0  9998
2 66270  53.1590   6.9202 0016585 281.0788  78.8365 15.70125545  3526
STARLINK-35745          
1 66271U 25247G   25319.56267265 -.01272419  00000+0 -13626-1 0  9997
2 66271  53.1588   6.2914 0000634  91.6771 268.4318 15.66062338  3544
STARLINK-35741          
1 66272U 25247H   25320.32891192 -.01162941  00000+0 -13983-1 0  9990
2 66272  53.1605   2.5391 0004281 186.4791 173.6169 15.62879857  3662
STARLINK-35730          
1 66273U 25247J   25320.32792574  .00236274  00000+0  21861-2 0  9998
2 66273  53.1609   2.5321 0014643 259.5186 100.4180 15.66149777  3669
STARLINK-35760          
1 66274U 25247K   25320.45623618 -.01050260  00000+0 -12962-1 0  9998
2 66274  53.1609   1.9084 0001888  36.5258 323.5885 15.61981504  3633
STARLINK-35752          
1 66275U 25247L   25320.45588191 -.00582011  00000+0 -69807-2 0  9999
2 66275  53.1611   1.9075 0004463 189.2248 170.8686 15.62127026  3638
STARLINK-35742          
1 66276U 25247M   25320.26359477 -.01248627  00000+0 -15056-1 0  9991
2 66276  53.1605   2.8399 0002067  11.3437 348.7624 15.63030913  3653
STARLINK-35708          
1 66277U 25247N   25320.32349670 -.00984181  00000+0 -83087-2 0  9994
2 66277  53.1617   2.5045 0031241 257.5104 102.2419 15.71022093  3668
